[{"OBJECT_NAME":"KINEIS-2B","OBJECT_ID":"2025-028G","EPOCH":"2026-03-09T16:59:55.239072","MEAN_MOTION":14.73115129,"ECCENTRICITY":0.00049359,"INCLINATION":97.9793,"RA_OF_ASC_NODE":123.3387,"ARG_OF_PERICENTER":108.6363,"MEAN_ANOMALY":251.5381,"EPHEMERIS_TYPE":0,"CLASSIFICATION_TYPE":"U","NORAD_CAT_ID":62934,"ELEMENT_SET_NO":999,"REV_AT_EPOCH":5801,"BSTAR":0.00027024703,"MEAN_MOTION_DOT":1.691e-5,"MEAN_MOTION_DDOT":0},{"OBJECT_NAME":"COSMOS 2251 DEB","OBJECT_ID":"1993-036BKL","EPOCH":"2026-03-07T06:57:25.479936","MEAN_MOTION":14.80132444,"ECCENTRICITY":0.0042742,"INCLINATION":74.0463,"RA_OF_ASC_NODE":51.8562,"ARG_OF_PERICENTER":120.2123,"MEAN_ANOMALY":240.3297,"EPHEMERIS_TYPE":0,"CLASSIFICATION_TYPE":"U","NORAD_CAT_ID":37320,"ELEMENT_SET_NO":999,"REV_AT_EPOCH":67397,"BSTAR":0.0012343,"MEAN_MOTION_DOT":9.493e-5,"MEAN_MOTION_DDOT":0}]
